{
  "norad_id": 63106,
  "name": "STARLINK-11584 [DTC]",
  "history": [
    {
      "epoch": "2026-03-28T11:03:56.549088",
      "apogee_km": 357.83325189123116,
      "perigee_km": 354.5295299750069,
      "latitude_deg": 38.42265663825905,
      "longitude_deg": 174.86283232015558,
      "semi_major_axis_km": 6734.318390933118,
      "eccentricity": 0.00024529,
      "inclination_deg": 43.0013,
      "raan_deg": 124.0642,
      "arg_perigee_deg": 268.0103,
      "mean_anomaly_deg": 92.0483,
      "mean_motion_rev_day": 15.70949751
    }
  ]
}