{"fetched_at":"2026-03-29T02:12:04Z","count":15717,"tles":[{"name":"STARLINK-11584 [DTC]","line1":"1 63106U 25039C   26087.46107117  .00203429  00000+0  15432-2 0  9991","line2":"2 63106  43.0013 124.0642 0002452 268.0103  92.0483 15.70949751 62564","category":"Starlink"}]}